start=new Date('2022-11-07T00:00:00.000Z').valueOf();
sats=[{"DECAY_DATE":null,"MEAN_MOTION_DOT":"0.00002788","INCLINATION":"53.0538","EPHEMERIS_TYPE":"0","SITE":"AFETR","PERIAPSIS":"546.261","CLASSIFICATION_TYPE":"U","ARG_OF_PERICENTER":"90.9711","MEAN_ELEMENT_THEORY":"SGP4","RCS_SIZE":"LARGE","PERIOD":"95.593","EPOCH":"2022-11-06T20:44:38.108544","OBJECT_TYPE":"PAYLOAD","NORAD_CAT_ID":"45407","ELEMENT_SET_NO":"999","ECCENTRICITY":"0.00014250","LAUNCH_DATE":"2020-03-18","TLE_LINE2":"2 45407  53.0538 208.1434 0001425  90.9711 269.1441 15.06388958146154","RA_OF_ASC_NODE":"208.1434","APOAPSIS":"548.234","TIME_SYSTEM":"UTC","OBJECT_NAME":"STARLINK-1275","FILE":"3647258","TLE_LINE1":"1 45407U 20019AZ  22310.86432996  .00002788  00000-0  20604-3 0  9997","REF_FRAME":"TEME","COUNTRY_CODE":"US","MEAN_ANOMALY":"269.1441","MEAN_MOTION":"15.06388958","GP_ID":"217064562","CENTER_NAME":"EARTH","REV_AT_EPOCH":"14615","BSTAR":"0.00020604000000","OBJECT_ID":"2020-019AZ","MEAN_MOTION_DDOT":"0.0000000000000","SEMIMAJOR_AXIS":"6925.382"},{"MEAN_ANOMALY":"309.2900","COUNTRY_CODE":"US","REF_FRAME":"TEME","TLE_LINE1":"1 45408U 20019BA  22310.81090499  .00017960  00000-0  12214-2 0  9996","FILE":"3647258","OBJECT_NAME":"STARLINK-1278","MEAN_MOTION_DDOT":"0.0000000000000","SEMIMAJOR_AXIS":"6925.337","CENTER_NAME":"EARTH","OBJECT_ID":"2020-019BA","REV_AT_EPOCH":"14573","BSTAR":"0.00122140000000","GP_ID":"217064394","MEAN_MOTION":"15.06403770","MEAN_ELEMENT_THEORY":"SGP4","PERIAPSIS":"545.973","ARG_OF_PERICENTER":"50.8247","CLASSIFICATION_TYPE":"U","EPHEMERIS_TYPE":"0","INCLINATION":"53.0540","SITE":"AFETR","DECAY_DATE":null,"MEAN_MOTION_DOT":"0.00017960","APOAPSIS":"548.431","TIME_SYSTEM":"UTC","LAUNCH_DATE":"2020-03-18","RA_OF_ASC_NODE":"238.3839","TLE_LINE2":"2 45408  53.0540 238.3839 0001775  50.8247 309.2900 15.06403770145738","OBJECT_TYPE":"PAYLOAD","ELEMENT_SET_NO":"999","NORAD_CAT_ID":"45408","ECCENTRICITY":"0.00017750","RCS_SIZE":"LARGE","PERIOD":"95.592","EPOCH":"2022-11-06T19:27:42.191136"},{"CENTER_NAME":"EARTH","REV_AT_EPOCH":"14616","BSTAR":"0.00145290000000","OBJECT_ID":"2020-019BB","MEAN_MOTION_DDOT":"0.0000000000000","SEMIMAJOR_AXIS":"6925.320","MEAN_MOTION":"15.06409204","GP_ID":"217064565","COUNTRY_CODE":"US","MEAN_ANOMALY":"303.1516","OBJECT_NAME":"STARLINK-1282","TLE_LINE1":"1 45409U 20019BB  22310.87264557  .00021431  00000-0  14529-2 0  9990","FILE":"3647258","REF_FRAME":"TEME","LAUNCH_DATE":"2020-03-18","TLE_LINE2":"2 45409  53.0528 208.1093 0001604  56.9627 303.1516 15.06409204146164","RA_OF_ASC_NODE":"208.1093","APOAPSIS":"548.296","TIME_SYSTEM":"UTC","RCS_SIZE":"LARGE","PERIOD":"95.592","EPOCH":"2022-11-06T20:56:36.577248","OBJECT_TYPE":"PAYLOAD","NORAD_CAT_ID":"45409","ECCENTRICITY":"0.00016040","ELEMENT_SET_NO":"999","PERIAPSIS":"546.075","CLASSIFICATION_TYPE":"U","ARG_OF_PERICENTER":"56.9627","MEAN_ELEMENT_THEORY":"SGP4","DECAY_DATE":null,"MEAN_MOTION_DOT":"0.00021431","INCLINATION":"53.0528","EPHEMERIS_TYPE":"0","SITE":"AFETR"},{"LAUNCH_DATE":"2020-03-18","RA_OF_ASC_NODE":"211.3037","TLE_LINE2":"2 45411  53.0557 211.3037 0001396  80.7813 279.3334 15.06409555146074","APOAPSIS":"548.151","TIME_SYSTEM":"UTC","RCS_SIZE":"LARGE","EPOCH":"2022-11-06T03:46:53.221152","PERIOD":"95.592","OBJECT_TYPE":"PAYLOAD","ECCENTRICITY":"0.00013960","NORAD_CAT_ID":"45411","ELEMENT_SET_NO":"999","PERIAPSIS":"546.217","ARG_OF_PERICENTER":"80.7813","CLASSIFICATION_TYPE":"U","MEAN_ELEMENT_THEORY":"SGP4","DECAY_DATE":null,"MEAN_MOTION_DOT":"-0.00010036","EPHEMERIS_TYPE":"0","INCLINATION":"53.0557","SITE":"AFETR","CENTER_NAME":"EARTH","OBJECT_ID":"2020-019BD","BSTAR":"-0.00065562000000","REV_AT_EPOCH":"14607","SEMIMAJOR_AXIS":"6925.319","MEAN_MOTION_DDOT":"0.0000000000000","GP_ID":"217053939","MEAN_MOTION":"15.06409555","COUNTRY_CODE":"US","MEAN_ANOMALY":"279.3334","OBJECT_NAME":"STARLINK-1293","REF_FRAME":"TEME","TLE_LINE1":"1 45411U 20019BD  22310.15756043 -.00010036  00000-0 -65562-3 0  9995","FILE":"3647066"},{"COUNTRY_CODE":"US","MEAN_ANOMALY":"311.0619","OBJECT_NAME":"STARLINK-1296","FILE":"3647066","TLE_LINE1":"1 45412U 20019BE  22310.12436802 -.00001659  00000-0 -92442-4 0  9990","REF_FRAME":"TEME","CENTER_NAME":"EARTH","BSTAR":"-0.00009244200000","REV_AT_EPOCH":"14604","OBJECT_ID":"2020-019BE","MEAN_MOTION_DDOT":"0.0000000000000","SEMIMAJOR_AXIS":"6925.333","MEAN_MOTION":"15.06405234","GP_ID":"217052688","PERIAPSIS":"545.826","CLASSIFICATION_TYPE":"U","ARG_OF_PERICENTER":"49.0542","MEAN_ELEMENT_THEORY":"SGP4","DECAY_DATE":null,"MEAN_MOTION_DOT":"-0.00001659","INCLINATION":"53.0533","EPHEMERIS_TYPE":"0","SITE":"AFETR","LAUNCH_DATE":"2020-03-18","TLE_LINE2":"2 45412  53.0533 211.4491 0001981  49.0542 311.0619 15.06405234146048","RA_OF_ASC_NODE":"211.4491","APOAPSIS":"548.569","TIME_SYSTEM":"UTC","RCS_SIZE":"LARGE","PERIOD":"95.592","EPOCH":"2022-11-06T02:59:05.396928","OBJECT_TYPE":"PAYLOAD","NORAD_CAT_ID":"45412","ECCENTRICITY":"0.00019810","ELEMENT_SET_NO":"999"},{"MEAN_MOTION":"15.06359086","GP_ID":"217052938","CENTER_NAME":"EARTH","BSTAR":"0.00099007000000","REV_AT_EPOCH":"14612","OBJECT_ID":"2020-019BF","SEMIMAJOR_AXIS":"6925.474","MEAN_MOTION_DDOT":"0.0000000000000","OBJECT_NAME":"STARLINK-1298","TLE_LINE1":"1 45413U 20019BF  22310.02119144  .00014480  00000-0  99007-3 0  9994","FILE":"3647066","REF_FRAME":"TEME","COUNTRY_CODE":"US","MEAN_ANOMALY":"300.3388","RCS_SIZE":"LARGE","PERIOD":"95.595","EPOCH":"2022-11-06T00:30:30.940416","OBJECT_TYPE":"PAYLOAD","ECCENTRICITY":"0.00015840","ELEMENT_SET_NO":"999","NORAD_CAT_ID":"45413","LAUNCH_DATE":"2020-03-18","TLE_LINE2":"2 45413  53.0542 211.9129 0001584  59.7758 300.3388 15.06359086146124","RA_OF_ASC_NODE":"211.9129","APOAPSIS":"548.436","TIME_SYSTEM":"UTC","DECAY_DATE":null,"MEAN_MOTION_DOT":"0.00014480","INCLINATION":"53.0542","EPHEMERIS_TYPE":"0","SITE":"AFETR","PERIAPSIS":"546.242","CLASSIFICATION_TYPE":"U","ARG_OF_PERICENTER":"59.7758","MEAN_ELEMENT_THEORY":"SGP4"},{"CENTER_NAME":"EARTH","REV_AT_EPOCH":"14603","BSTAR":"-0.00028559000000","OBJECT_ID":"2020-019BG","MEAN_MOTION_DDOT":"0.0000000000000","SEMIMAJOR_AXIS":"6925.395","MEAN_MOTION":"15.06384770","GP_ID":"217054187","COUNTRY_CODE":"US","MEAN_ANOMALY":"295.0522","OBJECT_NAME":"STARLINK-1309","TLE_LINE1":"1 45414U 20019BG  22310.13911638 -.00004531  00000-0 -28559-3 0  9997","FILE":"3647066","REF_FRAME":"TEME","LAUNCH_DATE":"2020-03-18","TLE_LINE2":"2 45414  53.0557 211.4042 0001821  65.0656 295.0522 15.06384770146039","RA_OF_ASC_NODE":"211.4042","APOAPSIS":"548.521","TIME_SYSTEM":"UTC","RCS_SIZE":"LARGE","PERIOD":"95.593","EPOCH":"2022-11-06T03:20:19.655232","OBJECT_TYPE":"PAYLOAD","ECCENTRICITY":"0.00018210","NORAD_CAT_ID":"45414","ELEMENT_SET_NO":"999","PERIAPSIS":"545.999","CLASSIFICATION_TYPE":"U","ARG_OF_PERICENTER":"65.0656","MEAN_ELEMENT_THEORY":"SGP4","DECAY_DATE":null,"MEAN_MOTION_DOT":"-0.00004531","INCLINATION":"53.0557","EPHEMERIS_TYPE":"0","SITE":"AFETR"},{"TIME_SYSTEM":"UTC","APOAPSIS":"548.485","TLE_LINE2":"2 45415  53.0539 211.2879 0001739  64.7732 295.3437 15.06378151146073","RA_OF_ASC_NODE":"211.2879","LAUNCH_DATE":"2020-03-18","ECCENTRICITY":"0.00017390","NORAD_CAT_ID":"45415","ELEMENT_SET_NO":"999","OBJECT_TYPE":"PAYLOAD","PERIOD":"95.594","EPOCH":"2022-11-06T03:57:31.640256","RCS_SIZE":"LARGE","MEAN_ELEMENT_THEORY":"SGP4","CLASSIFICATION_TYPE":"U","ARG_OF_PERICENTER":"64.7732","PERIAPSIS":"546.076","SITE":"AFETR","INCLINATION":"53.0539","EPHEMERIS_TYPE":"0","MEAN_MOTION_DOT":"0.00001749","DECAY_DATE":null,"SEMIMAJOR_AXIS":"6925.416","MEAN_MOTION_DDOT":"0.0000000000000","REV_AT_EPOCH":"14607","BSTAR":"0.00013638000000","OBJECT_ID":"2020-019BH","CENTER_NAME":"EARTH","MEAN_MOTION":"15.06378151","GP_ID":"217054438","MEAN_ANOMALY":"295.3437","COUNTRY_CODE":"US","TLE_LINE1":"1 45415U 20019BH  22310.16494954  .00001749  00000-0  13638-3 0  9996","FILE":"3647066","REF_FRAME":"TEME","OBJECT_NAME":"STARLINK-1316"},{"DECAY_DATE":null,"MEAN_MOTION_DOT":"0.00007833","EPHEMERIS_TYPE":"0","INCLINATION":"53.0534","SITE":"AFETR","PERIAPSIS":"546.074","ARG_OF_PERICENTER":"58.9962","CLASSIFICATION_TYPE":"U","MEAN_ELEMENT_THEORY":"SGP4","RCS_SIZE":"LARGE","PERIOD":"95.593","EPOCH":"2022-11-06T20:40:41.213568","OBJECT_TYPE":"PAYLOAD","ECCENTRICITY":"0.00016720","ELEMENT_SET_NO":"999","NORAD_CAT_ID":"45416","LAUNCH_DATE":"2020-03-18","RA_OF_ASC_NODE":"208.1458","TLE_LINE2":"2 45416  53.0534 208.1458 0001672  58.9962 301.1191 15.06393954146164","APOAPSIS":"548.390","TIME_SYSTEM":"UTC","OBJECT_NAME":"STARLINK-1318","FILE":"3647262","TLE_LINE1":"1 45416U 20019BJ  22310.86158812  .00007833  00000-0  54425-3 0  9993","REF_FRAME":"TEME","COUNTRY_CODE":"US","MEAN_ANOMALY":"301.1191","GP_ID":"217064634","MEAN_MOTION":"15.06393954","CENTER_NAME":"EARTH","OBJECT_ID":"2020-019BJ","BSTAR":"0.00054425000000","REV_AT_EPOCH":"14616","SEMIMAJOR_AXIS":"6925.367","MEAN_MOTION_DDOT":"0.0000000000000"},{"TIME_SYSTEM":"UTC","APOAPSIS":"548.438","RA_OF_ASC_NODE":"238.4200","TLE_LINE2":"2 45417  53.0554 238.4200 0001742  62.3109 297.8057 15.06393998146012","LAUNCH_DATE":"2020-03-18","ECCENTRICITY":"0.00017420","NORAD_CAT_ID":"45417","ELEMENT_SET_NO":"999","OBJECT_TYPE":"PAYLOAD","PERIOD":"95.593","EPOCH":"2022-11-06T19:11:46.158720","RCS_SIZE":"LARGE","MEAN_ELEMENT_THEORY":"SGP4","ARG_OF_PERICENTER":"62.3109","CLASSIFICATION_TYPE":"U","PERIAPSIS":"546.026","SITE":"AFETR","EPHEMERIS_TYPE":"0","INCLINATION":"53.0554","MEAN_MOTION_DOT":"0.00001732","DECAY_DATE":null,"MEAN_MOTION_DDOT":"0.0000000000000","SEMIMAJOR_AXIS":"6925.367","OBJECT_ID":"2020-019BK","REV_AT_EPOCH":"14601","BSTAR":"0.00013514000000","CENTER_NAME":"EARTH","GP_ID":"217061410","MEAN_MOTION":"15.06393998","MEAN_ANOMALY":"297.8057","COUNTRY_CODE":"US","TLE_LINE1":"1 45417U 20019BK  22310.79983980  .00001732  00000-0  13514-3 0  9994","REF_FRAME":"TEME","FILE":"3647128","OBJECT_NAME":"STARLINK-1286"}];
